CCSDS_OMM_VERS = 2.0
CREATION_DATE  = 
ORIGINATOR     = 

OBJECT_NAME    = ELECTRON KICK STAGE R/B
OBJECT_ID      = 2025-305E
CENTER_NAME    = EARTH
REF_FRAME      = TEME
TIME_SYSTEM    = UTC
MEAN_ELEMENT_THEORY = SGP/SGP4

EPOCH          = 2025-12-23T06:58:48.011808
MEAN_MOTION    = 15.48545747
ECCENTRICITY   = .017749
INCLINATION    = 44.9877
RA_OF_ASC_NODE = 292.9264
ARG_OF_PERICENTER = 166.6089
MEAN_ANOMALY   = 193.9601

EPHEMERIS_TYPE = 0
CLASSIFICATION_TYPE = U
NORAD_CAT_ID   = 67223
ELEMENT_SET_NO = 999
REV_AT_EPOCH   = 79
BSTAR          = .18366E-3
MEAN_MOTION_DOT = .18707E-3
MEAN_MOTION_DDOT = 0

CCSDS_OMM_VERS = 2.0
CREATION_DATE  = 
ORIGINATOR     = 

OBJECT_NAME    = ELECTRON R/B
OBJECT_ID      = 2025-305F
CENTER_NAME    = EARTH
REF_FRAME      = TEME
TIME_SYSTEM    = UTC
MEAN_ELEMENT_THEORY = SGP/SGP4

EPOCH          = 2025-12-18T18:27:13.126752
MEAN_MOTION    = 15.64663678
ECCENTRICITY   = .0262888
INCLINATION    = 45.0188
RA_OF_ASC_NODE = 318.3021
ARG_OF_PERICENTER = 280.1207
MEAN_ANOMALY   = 77.0133

EPHEMERIS_TYPE = 0
CLASSIFICATION_TYPE = U
NORAD_CAT_ID   = 67224
ELEMENT_SET_NO = 999
REV_AT_EPOCH   = 9
BSTAR          = .22935E-3
MEAN_MOTION_DOT = .172783E-2
MEAN_MOTION_DDOT = .86369E-5

CCSDS_OMM_VERS = 2.0
CREATION_DATE  = 
ORIGINATOR     = 

OBJECT_NAME    = TJS-23
OBJECT_ID      = 2025-306A
CENTER_NAME    = EARTH
REF_FRAME      = TEME
TIME_SYSTEM    = UTC
MEAN_ELEMENT_THEORY = SGP/SGP4

EPOCH          = 2025-12-31T01:33:18.804672
MEAN_MOTION    = 1.00275521
ECCENTRICITY   = .00011893
INCLINATION    = 5.9705
RA_OF_ASC_NODE = 298.3666
ARG_OF_PERICENTER = 280.4575
MEAN_ANOMALY   = 79.7143

EPHEMERIS_TYPE = 0
CLASSIFICATION_TYPE = U
NORAD_CAT_ID   = 67226
ELEMENT_SET_NO = 999
REV_AT_EPOCH   = 20
BSTAR          = 0
MEAN_MOTION_DOT = .4E-6
MEAN_MOTION_DDOT = 0

CCSDS_OMM_VERS = 2.0
CREATION_DATE  = 
ORIGINATOR     = 

OBJECT_NAME    = CZ-5 R/B
OBJECT_ID      = 2025-306B
CENTER_NAME    = EARTH
REF_FRAME      = TEME
TIME_SYSTEM    = UTC
MEAN_ELEMENT_THEORY = SGP/SGP4

EPOCH          = 2025-12-31T16:27:56.701152
MEAN_MOTION    = 1.92297574
ECCENTRICITY   = .75843316
INCLINATION    = 16.3704
RA_OF_ASC_NODE = 295.3600
ARG_OF_PERICENTER = 185.5665
MEAN_ANOMALY   = 154.1809

EPHEMERIS_TYPE = 0
CLASSIFICATION_TYPE = U
NORAD_CAT_ID   = 67227
ELEMENT_SET_NO = 999
REV_AT_EPOCH   = 23
BSTAR          = .77956484E-3
MEAN_MOTION_DOT = .3467E-4
MEAN_MOTION_DDOT = 0

CCSDS_OMM_VERS = 2.0
CREATION_DATE  = 
ORIGINATOR     = 

OBJECT_NAME    = QPS-SAR-15
OBJECT_ID      = 2025-307A
CENTER_NAME    = EARTH
REF_FRAME      = TEME
TIME_SYSTEM    = UTC
MEAN_ELEMENT_THEORY = SGP/SGP4

EPOCH          = 2025-12-31T13:44:07.776672
MEAN_MOTION    = 14.97186640
ECCENTRICITY   = .0009519
INCLINATION    = 42.0073
RA_OF_ASC_NODE = 67.2084
ARG_OF_PERICENTER = 330.0101
MEAN_ANOMALY   = 30.0177

EPHEMERIS_TYPE = 0
CLASSIFICATION_TYPE = U
NORAD_CAT_ID   = 67228
ELEMENT_SET_NO = 999
REV_AT_EPOCH   = 154
BSTAR          = .80458119E-3
MEAN_MOTION_DOT = .9294E-4
MEAN_MOTION_DDOT = 0

CCSDS_OMM_VERS = 2.0
CREATION_DATE  = 
ORIGINATOR     = 

OBJECT_NAME    = ELECTRON KICK STAGE R/B
OBJECT_ID      = 2025-307B
CENTER_NAME    = EARTH
REF_FRAME      = TEME
TIME_SYSTEM    = UTC
MEAN_ELEMENT_THEORY = SGP/SGP4

EPOCH          = 2025-12-31T08:45:17.347104
MEAN_MOTION    = 15.63279516
ECCENTRICITY   = .02191037
INCLINATION    = 42.0010
RA_OF_ASC_NODE = 62.9543
ARG_OF_PERICENTER = 308.7413
MEAN_ANOMALY   = 49.4033

EPHEMERIS_TYPE = 0
CLASSIFICATION_TYPE = U
NORAD_CAT_ID   = 67229
ELEMENT_SET_NO = 999
REV_AT_EPOCH   = 157
BSTAR          = .18992345E-2
MEAN_MOTION_DOT = .67196E-2
MEAN_MOTION_DDOT = .13821569E-3

CCSDS_OMM_VERS = 2.0
CREATION_DATE  = 
ORIGINATOR     = 

OBJECT_NAME    = ELECTRON R/B
OBJECT_ID      = 2025-307C
CENTER_NAME    = EARTH
REF_FRAME      = TEME
TIME_SYSTEM    = UTC
MEAN_ELEMENT_THEORY = SGP/SGP4

EPOCH          = 2025-12-21T08:41:59.140320
MEAN_MOTION    = 15.55087105
ECCENTRICITY   = .02614087
INCLINATION    = 41.9820
RA_OF_ASC_NODE = 123.1026
ARG_OF_PERICENTER = 268.1410
MEAN_ANOMALY   = 88.9482

EPHEMERIS_TYPE = 0
CLASSIFICATION_TYPE = U
NORAD_CAT_ID   = 67230
ELEMENT_SET_NO = 999
REV_AT_EPOCH   = 1
BSTAR          = .20247584E-3
MEAN_MOTION_DOT = .71881E-3
MEAN_MOTION_DDOT = .8106877E-5

CCSDS_OMM_VERS = 2.0
CREATION_DATE  = 
ORIGINATOR     = 

OBJECT_NAME    = SPACEMOBILE-006
OBJECT_ID      = 2025-309A
CENTER_NAME    = EARTH
REF_FRAME      = TEME
TIME_SYSTEM    = UTC
MEAN_ELEMENT_THEORY = SGP/SGP4

EPOCH          = 2025-12-26T18:03:01.821888
MEAN_MOTION    = 15.17699903
ECCENTRICITY   = .00104773
INCLINATION    = 53.0002
RA_OF_ASC_NODE = 40.8851
ARG_OF_PERICENTER = 329.2446
MEAN_ANOMALY   = 30.7932

EPHEMERIS_TYPE = 0
CLASSIFICATION_TYPE = U
NORAD_CAT_ID   = 67232
ELEMENT_SET_NO = 999
REV_AT_EPOCH   = 40
BSTAR          = .7265072E-4
MEAN_MOTION_DOT = .1165E-4
MEAN_MOTION_DDOT = 0

CCSDS_OMM_VERS = 2.0
CREATION_DATE  = 
ORIGINATOR     = 

OBJECT_NAME    = LVM3 R/B
OBJECT_ID      = 2025-309B
CENTER_NAME    = EARTH
REF_FRAME      = TEME
TIME_SYSTEM    = UTC
MEAN_ELEMENT_THEORY = SGP/SGP4

EPOCH          = 2025-12-26T17:58:57.873216
MEAN_MOTION    = 15.19340101
ECCENTRICITY   = .0010474
INCLINATION    = 52.9350
RA_OF_ASC_NODE = 40.7629
ARG_OF_PERICENTER = 355.6984
MEAN_ANOMALY   = 4.3917

EPHEMERIS_TYPE = 0
CLASSIFICATION_TYPE = U
NORAD_CAT_ID   = 67233
ELEMENT_SET_NO = 999
REV_AT_EPOCH   = 40
BSTAR          = .72626686E-4
MEAN_MOTION_DOT = .1231E-4
MEAN_MOTION_DDOT = 0

CCSDS_OMM_VERS = 2.0
CREATION_DATE  = 
ORIGINATOR     = 

OBJECT_NAME    = 2025-310A
OBJECT_ID      = 2025-310A
CENTER_NAME    = EARTH
REF_FRAME      = TEME
TIME_SYSTEM    = UTC
MEAN_ELEMENT_THEORY = SGP/SGP4

EPOCH          = 2025-12-29T07:34:01.585632
MEAN_MOTION    = 15.11153747
ECCENTRICITY   = .01516124
INCLINATION    = 97.9657
RA_OF_ASC_NODE = 8.0673
ARG_OF_PERICENTER = 68.9370
MEAN_ANOMALY   = 292.7996

EPHEMERIS_TYPE = 0
CLASSIFICATION_TYPE = U
NORAD_CAT_ID   = 67234
ELEMENT_SET_NO = 999
REV_AT_EPOCH   = 57
BSTAR          = .1391438E-3
MEAN_MOTION_DOT = .2994E-4
MEAN_MOTION_DDOT = 0

CCSDS_OMM_VERS = 2.0
CREATION_DATE  = 
ORIGINATOR     = 

OBJECT_NAME    = SL-4 R/B
OBJECT_ID      = 2025-310B
CENTER_NAME    = EARTH
REF_FRAME      = TEME
TIME_SYSTEM    = UTC
MEAN_ELEMENT_THEORY = SGP/SGP4

EPOCH          = 2025-12-30T22:41:34.902240
MEAN_MOTION    = 15.50179935
ECCENTRICITY   = .02996725
INCLINATION    = 97.9679
RA_OF_ASC_NODE = 10.0184
ARG_OF_PERICENTER = 57.0996
MEAN_ANOMALY   = 305.8706

EPHEMERIS_TYPE = 0
CLASSIFICATION_TYPE = U
NORAD_CAT_ID   = 67235
ELEMENT_SET_NO = 999
REV_AT_EPOCH   = 83
BSTAR          = .3058068E-3
MEAN_MOTION_DOT = .131108E-2
MEAN_MOTION_DDOT = .2208242E-5

CCSDS_OMM_VERS = 2.0
CREATION_DATE  = 
ORIGINATOR     = 

OBJECT_NAME    = FENGYUN 4C
OBJECT_ID      = 2025-312A
CENTER_NAME    = EARTH
REF_FRAME      = TEME
TIME_SYSTEM    = UTC
MEAN_ELEMENT_THEORY = SGP/SGP4

EPOCH          = 2025-12-26T21:48:20.798784
MEAN_MOTION    = 2.27841578
ECCENTRICITY   = .7309751
INCLINATION    = 28.4641
RA_OF_ASC_NODE = 334.3215
ARG_OF_PERICENTER = 179.7824
MEAN_ANOMALY   = 181.1675

EPHEMERIS_TYPE = 0
CLASSIFICATION_TYPE = U
NORAD_CAT_ID   = 67246
ELEMENT_SET_NO = 999
REV_AT_EPOCH   = 1
BSTAR          = .21251E-2
MEAN_MOTION_DOT = .39214E-3
MEAN_MOTION_DDOT = .41525E-6

